{
    "links": {
        "self": "http://www.neowsapp.com/rest/v1/neo/3830889?api_key=iIulBulltgU6a56xZRHN4H3l9WmuAYTsLGpBGhQ2"
    },
    "id": "3830889",
    "neo_reference_id": "3830889",
    "name": "(2018 SQ2)",
    "designation": "2018 SQ2",
    "nasa_jpl_url": "http://ssd.jpl.nasa.gov/sbdb.cgi?sstr=3830889",
    "absolute_magnitude_h": 24.9,
    "estimated_diameter": {
        "kilometers": {
            "estimated_diameter_min": 0.0278326768,
            "estimated_diameter_max": 0.0622357573
        },
        "meters": {
            "estimated_diameter_min": 27.8326768072,
            "estimated_diameter_max": 62.2357573367
        },
        "miles": {
            "estimated_diameter_min": 0.0172944182,
            "estimated_diameter_max": 0.0386714948
        },
        "feet": {
            "estimated_diameter_min": 91.3145593761,
            "estimated_diameter_max": 204.1855621004
        }
    },
    "is_potentially_hazardous_asteroid": false,
    "close_approach_data": [
        {
            "close_approach_date": "2018-10-04",
            "close_approach_date_full": "2018-Oct-04 23:31",
            "epoch_date_close_approach": 1538695860000,
            "relative_velocity": {
                "kilometers_per_second": "7.7497066363",
                "kilometers_per_hour": "27898.9438906949",
                "miles_per_hour": "17335.3187747487"
            },
            "miss_distance": {
                "astronomical": "0.0479063878",
                "lunar": "18.6355848542",
                "kilometers": "7166693.574273986",
                "miles": "4453176.8904975668"
            },
            "orbiting_body": "Earth"
        }
    ],
    "orbital_data": {
        "orbit_id": "9",
        "orbit_determination_date": "2018-11-08 06:39:48",
        "first_observation_date": "2018-09-29",
        "last_observation_date": "2018-11-06",
        "data_arc_in_days": 38,
        "observations_used": 52,
        "orbit_uncertainty": "7",
        "minimum_orbit_intersection": ".042862",
        "jupiter_tisserand_invariant": "3.919",
        "epoch_osculation": "2459000.5",
        "eccentricity": ".4262398381032081",
        "semi_major_axis": "1.814362359463579",
        "inclination": "10.43770140935906",
        "ascending_node_longitude": "196.4685391266293",
        "orbital_period": "892.6566981292715",
        "perihelion_distance": "1.041008841105268",
        "perihelion_argument": "177.306596908661",
        "aphelion_distance": "2.58771587782189",
        "perihelion_time": "2459290.167468164857",
        "mean_anomaly": "243.1798509349816",
        "mean_motion": ".4032905379575901",
        "equinox": "J2000",
        "orbit_class": {
            "orbit_class_type": "AMO",
            "orbit_class_description": "Near-Earth asteroid orbits similar to that of 1221 Amor",
            "orbit_class_range": "1.017 AU < q (perihelion) < 1.3 AU"
        }
    },
    "is_sentry_object": false
}